[{"OBJECT_NAME":"OBJECT J","OBJECT_ID":"2025-155J","EPOCH":"2026-03-09T22:09:22.347648","MEAN_MOTION":15.2758258,"ECCENTRICITY":0.00088188,"INCLINATION":97.4475,"RA_OF_ASC_NODE":37.3123,"ARG_OF_PERICENTER":150.071,"MEAN_ANOMALY":210.1035,"EPHEMERIS_TYPE":0,"CLASSIFICATION_TYPE":"U","NORAD_CAT_ID":64884,"ELEMENT_SET_NO":999,"REV_AT_EPOCH":6559,"BSTAR":0.00051444498,"MEAN_MOTION_DOT":0.00013827,"MEAN_MOTION_DDOT":0},{"OBJECT_NAME":"STARLINK-36186","OBJECT_ID":"2025-303C","EPOCH":"2026-03-09T01:36:24.057504","MEAN_MOTION":15.27582949,"ECCENTRICITY":0.00017453,"INCLINATION":43.0028,"RA_OF_ASC_NODE":313.9149,"ARG_OF_PERICENTER":273.9123,"MEAN_ANOMALY":86.1529,"EPHEMERIS_TYPE":0,"CLASSIFICATION_TYPE":"U","NORAD_CAT_ID":67165,"ELEMENT_SET_NO":999,"REV_AT_EPOCH":1264,"BSTAR":0.0014413292,"MEAN_MOTION_DOT":0.00039617,"MEAN_MOTION_DDOT":0}]
